UNKNOWN                 
1 87334U          26031.59980627  .00019478  00000+0  11018-1 0  9993
2 87334  90.0015 271.6840 0061539  75.0523 285.7464 14.09055235393663
UNKNOWN                 
1 87335U          26031.10295761  .00018453  00000+0  10265-1 0  9994
2 87335  89.9892 267.9097 0082051  57.9761 302.9361 14.09224686393926
UNKNOWN                 
1 87405U          26029.93404844  .00003108  00000+0  22044-2 0  9994
2 87405  82.7492  22.0868 0057548 189.1975 170.8145 13.96594428617880
UNKNOWN                 
1 87426U          26031.24334449  .00005082  00000+0  19415-2 0  9998
2 87426  65.7808 200.2734 0068381 270.6784 267.0165 14.30247684629666
UNKNOWN                 
1 87448U          26028.56303099  .00001824  00000+0  14784-2 0  9994
2 87448 100.4524 245.8679 0062852  82.0276 278.8005 13.90765425615743
UNKNOWN                 
1 87456U          26026.21588867  .00021739  00000+0  31219-2 0  9990
2 87456  65.7802 332.8742 0510710 342.0853  16.2781 14.14458800617787
UNKNOWN                 
1 87517U          26021.77810484  .00008188  00000+0  22318-2 0  9990
2 87517  65.8185 135.2421 0675698 287.3753 146.8912 13.61546179598362
UNKNOWN                 
1 87541U          26010.42988520  .00000073  00000+0  22386-3 0  9995
2 87541  99.6994 227.9070 0059564 192.8657 291.0153 13.35601126585868
UNKNOWN                 
1 87553U          26030.95774697  .00003013  00000+0  93761-3 0  9998
2 87553  65.6673 236.7311 0695545 205.6573 150.8393 13.53754803597917
UNKNOWN                 
1 87557U          26025.82783114  .00005595  00000+0  12200-1 0  9990
2 87557 101.7488 252.0644 0079622 287.9240  71.3206 13.28216857570884
UNKNOWN                 
1 87561U          26023.62950152  .00000012  00000+0  43772-3 0  9998
2 87561 102.0034  85.0011 0175874 216.3867 298.6831 12.32162462547595
UNKNOWN                 
1 87565U          26027.77719977  .00002450  00000+0  13315-2 0  9997
2 87565  99.9505  28.8920 0172131  46.3917 315.1385 14.06124746622904
