CCSDS_OMM_VERS = 2.0
CREATION_DATE  = 
ORIGINATOR     = 

OBJECT_NAME    = UNKNOWN
OBJECT_ID      = 
CENTER_NAME    = EARTH
REF_FRAME      = TEME
TIME_SYSTEM    = UTC
MEAN_ELEMENT_THEORY = SGP/SGP4

EPOCH          = 2026-01-31T14:23:43.261728
MEAN_MOTION    = 14.09055235
ECCENTRICITY   = .0061539
INCLINATION    = 90.0015
RA_OF_ASC_NODE = 271.6840
ARG_OF_PERICENTER = 75.0523
MEAN_ANOMALY   = 285.7464

EPHEMERIS_TYPE = 0
CLASSIFICATION_TYPE = U
NORAD_CAT_ID   = 87334
ELEMENT_SET_NO = 999
REV_AT_EPOCH   = 39366
BSTAR          = .11018E-1
MEAN_MOTION_DOT = .19478E-3
MEAN_MOTION_DDOT = 0

CCSDS_OMM_VERS = 2.0
CREATION_DATE  = 
ORIGINATOR     = 

OBJECT_NAME    = UNKNOWN
OBJECT_ID      = 
CENTER_NAME    = EARTH
REF_FRAME      = TEME
TIME_SYSTEM    = UTC
MEAN_ELEMENT_THEORY = SGP/SGP4

EPOCH          = 2026-01-31T02:28:15.537504
MEAN_MOTION    = 14.09224686
ECCENTRICITY   = .0082051
INCLINATION    = 89.9892
RA_OF_ASC_NODE = 267.9097
ARG_OF_PERICENTER = 57.9761
MEAN_ANOMALY   = 302.9361

EPHEMERIS_TYPE = 0
CLASSIFICATION_TYPE = U
NORAD_CAT_ID   = 87335
ELEMENT_SET_NO = 999
REV_AT_EPOCH   = 39392
BSTAR          = .10265E-1
MEAN_MOTION_DOT = .18453E-3
MEAN_MOTION_DDOT = 0

CCSDS_OMM_VERS = 2.0
CREATION_DATE  = 
ORIGINATOR     = 

OBJECT_NAME    = UNKNOWN
OBJECT_ID      = 
CENTER_NAME    = EARTH
REF_FRAME      = TEME
TIME_SYSTEM    = UTC
MEAN_ELEMENT_THEORY = SGP/SGP4

EPOCH          = 2026-01-29T22:25:01.785216
MEAN_MOTION    = 13.96594428
ECCENTRICITY   = .0057548
INCLINATION    = 82.7492
RA_OF_ASC_NODE = 22.0868
ARG_OF_PERICENTER = 189.1975
MEAN_ANOMALY   = 170.8145

EPHEMERIS_TYPE = 0
CLASSIFICATION_TYPE = U
NORAD_CAT_ID   = 87405
ELEMENT_SET_NO = 999
REV_AT_EPOCH   = 61788
BSTAR          = .22044E-2
MEAN_MOTION_DOT = .3108E-4
MEAN_MOTION_DDOT = 0

CCSDS_OMM_VERS = 2.0
CREATION_DATE  = 
ORIGINATOR     = 

OBJECT_NAME    = UNKNOWN
OBJECT_ID      = 
CENTER_NAME    = EARTH
REF_FRAME      = TEME
TIME_SYSTEM    = UTC
MEAN_ELEMENT_THEORY = SGP/SGP4

EPOCH          = 2026-01-31T05:50:24.963936
MEAN_MOTION    = 14.30247684
ECCENTRICITY   = .0068381
INCLINATION    = 65.7808
RA_OF_ASC_NODE = 200.2734
ARG_OF_PERICENTER = 270.6784
MEAN_ANOMALY   = 267.0165

EPHEMERIS_TYPE = 0
CLASSIFICATION_TYPE = U
NORAD_CAT_ID   = 87426
ELEMENT_SET_NO = 999
REV_AT_EPOCH   = 62966
BSTAR          = .19415E-2
MEAN_MOTION_DOT = .5082E-4
MEAN_MOTION_DDOT = 0

CCSDS_OMM_VERS = 2.0
CREATION_DATE  = 
ORIGINATOR     = 

OBJECT_NAME    = UNKNOWN
OBJECT_ID      = 
CENTER_NAME    = EARTH
REF_FRAME      = TEME
TIME_SYSTEM    = UTC
MEAN_ELEMENT_THEORY = SGP/SGP4

EPOCH          = 2026-01-28T13:30:45.877536
MEAN_MOTION    = 13.90765425
ECCENTRICITY   = .0062852
INCLINATION    = 100.4524
RA_OF_ASC_NODE = 245.8679
ARG_OF_PERICENTER = 82.0276
MEAN_ANOMALY   = 278.8005

EPHEMERIS_TYPE = 0
CLASSIFICATION_TYPE = U
NORAD_CAT_ID   = 87448
ELEMENT_SET_NO = 999
REV_AT_EPOCH   = 61574
BSTAR          = .14784E-2
MEAN_MOTION_DOT = .1824E-4
MEAN_MOTION_DDOT = 0

CCSDS_OMM_VERS = 2.0
CREATION_DATE  = 
ORIGINATOR     = 

OBJECT_NAME    = UNKNOWN
OBJECT_ID      = 
CENTER_NAME    = EARTH
REF_FRAME      = TEME
TIME_SYSTEM    = UTC
MEAN_ELEMENT_THEORY = SGP/SGP4

EPOCH          = 2026-01-26T05:10:52.781088
MEAN_MOTION    = 14.14458800
ECCENTRICITY   = .051071
INCLINATION    = 65.7802
RA_OF_ASC_NODE = 332.8742
ARG_OF_PERICENTER = 342.0853
MEAN_ANOMALY   = 16.2781

EPHEMERIS_TYPE = 0
CLASSIFICATION_TYPE = U
NORAD_CAT_ID   = 87456
ELEMENT_SET_NO = 999
REV_AT_EPOCH   = 61778
BSTAR          = .31219E-2
MEAN_MOTION_DOT = .21739E-3
MEAN_MOTION_DDOT = 0

CCSDS_OMM_VERS = 2.0
CREATION_DATE  = 
ORIGINATOR     = 

OBJECT_NAME    = UNKNOWN
OBJECT_ID      = 
CENTER_NAME    = EARTH
REF_FRAME      = TEME
TIME_SYSTEM    = UTC
MEAN_ELEMENT_THEORY = SGP/SGP4

EPOCH          = 2026-01-21T18:40:28.258176
MEAN_MOTION    = 13.61546179
ECCENTRICITY   = .0675698
INCLINATION    = 65.8185
RA_OF_ASC_NODE = 135.2421
ARG_OF_PERICENTER = 287.3753
MEAN_ANOMALY   = 146.8912

EPHEMERIS_TYPE = 0
CLASSIFICATION_TYPE = U
NORAD_CAT_ID   = 87517
ELEMENT_SET_NO = 999
REV_AT_EPOCH   = 59836
BSTAR          = .22318E-2
MEAN_MOTION_DOT = .8188E-4
MEAN_MOTION_DDOT = 0

CCSDS_OMM_VERS = 2.0
CREATION_DATE  = 
ORIGINATOR     = 

OBJECT_NAME    = UNKNOWN
OBJECT_ID      = 
CENTER_NAME    = EARTH
REF_FRAME      = TEME
TIME_SYSTEM    = UTC
MEAN_ELEMENT_THEORY = SGP/SGP4

EPOCH          = 2026-01-10T10:19:02.081280
MEAN_MOTION    = 13.35601126
ECCENTRICITY   = .0059564
INCLINATION    = 99.6994
RA_OF_ASC_NODE = 227.9070
ARG_OF_PERICENTER = 192.8657
MEAN_ANOMALY   = 291.0153

EPHEMERIS_TYPE = 0
CLASSIFICATION_TYPE = U
NORAD_CAT_ID   = 87541
ELEMENT_SET_NO = 999
REV_AT_EPOCH   = 58586
BSTAR          = .22386E-3
MEAN_MOTION_DOT = .73E-6
MEAN_MOTION_DDOT = 0

CCSDS_OMM_VERS = 2.0
CREATION_DATE  = 
ORIGINATOR     = 

OBJECT_NAME    = UNKNOWN
OBJECT_ID      = 
CENTER_NAME    = EARTH
REF_FRAME      = TEME
TIME_SYSTEM    = UTC
MEAN_ELEMENT_THEORY = SGP/SGP4

EPOCH          = 2026-01-30T22:59:09.338208
MEAN_MOTION    = 13.53754803
ECCENTRICITY   = .0695545
INCLINATION    = 65.6673
RA_OF_ASC_NODE = 236.7311
ARG_OF_PERICENTER = 205.6573
MEAN_ANOMALY   = 150.8393

EPHEMERIS_TYPE = 0
CLASSIFICATION_TYPE = U
NORAD_CAT_ID   = 87553
ELEMENT_SET_NO = 999
REV_AT_EPOCH   = 59791
BSTAR          = .93761E-3
MEAN_MOTION_DOT = .3013E-4
MEAN_MOTION_DDOT = 0

CCSDS_OMM_VERS = 2.0
CREATION_DATE  = 
ORIGINATOR     = 

OBJECT_NAME    = UNKNOWN
OBJECT_ID      = 
CENTER_NAME    = EARTH
REF_FRAME      = TEME
TIME_SYSTEM    = UTC
MEAN_ELEMENT_THEORY = SGP/SGP4

EPOCH          = 2026-01-25T19:52:04.610496
MEAN_MOTION    = 13.28216857
ECCENTRICITY   = .0079622
INCLINATION    = 101.7488
RA_OF_ASC_NODE = 252.0644
ARG_OF_PERICENTER = 287.9240
MEAN_ANOMALY   = 71.3206

EPHEMERIS_TYPE = 0
CLASSIFICATION_TYPE = U
NORAD_CAT_ID   = 87557
ELEMENT_SET_NO = 999
REV_AT_EPOCH   = 57088
BSTAR          = .122E-1
MEAN_MOTION_DOT = .5595E-4
MEAN_MOTION_DDOT = 0

CCSDS_OMM_VERS = 2.0
CREATION_DATE  = 
ORIGINATOR     = 

OBJECT_NAME    = UNKNOWN
OBJECT_ID      = 
CENTER_NAME    = EARTH
REF_FRAME      = TEME
TIME_SYSTEM    = UTC
MEAN_ELEMENT_THEORY = SGP/SGP4

EPOCH          = 2026-01-23T15:06:28.931328
MEAN_MOTION    = 12.32162462
ECCENTRICITY   = .0175874
INCLINATION    = 102.0034
RA_OF_ASC_NODE = 85.0011
ARG_OF_PERICENTER = 216.3867
MEAN_ANOMALY   = 298.6831

EPHEMERIS_TYPE = 0
CLASSIFICATION_TYPE = U
NORAD_CAT_ID   = 87561
ELEMENT_SET_NO = 999
REV_AT_EPOCH   = 54759
BSTAR          = .43772E-3
MEAN_MOTION_DOT = .12E-6
MEAN_MOTION_DDOT = 0

CCSDS_OMM_VERS = 2.0
CREATION_DATE  = 
ORIGINATOR     = 

OBJECT_NAME    = UNKNOWN
OBJECT_ID      = 
CENTER_NAME    = EARTH
REF_FRAME      = TEME
TIME_SYSTEM    = UTC
MEAN_ELEMENT_THEORY = SGP/SGP4

EPOCH          = 2026-01-27T18:39:10.060128
MEAN_MOTION    = 14.06124746
ECCENTRICITY   = .0172131
INCLINATION    = 99.9505
RA_OF_ASC_NODE = 28.8920
ARG_OF_PERICENTER = 46.3917
MEAN_ANOMALY   = 315.1385

EPHEMERIS_TYPE = 0
CLASSIFICATION_TYPE = U
NORAD_CAT_ID   = 87565
ELEMENT_SET_NO = 999
REV_AT_EPOCH   = 62290
BSTAR          = .13315E-2
MEAN_MOTION_DOT = .245E-4
MEAN_MOTION_DDOT = 0

